NORAD_CAT_ID,OBJECT_NAME,OBJECT_TYPE,EPOCH,MEAN_MOTION,ECCENTRICITY,INCLINATION,RA_OF_ASC_NODE,ARG_OF_PERICENTER,MEAN_ANOMALY,BSTAR,MEAN_MOTION_DOT,MEAN_MOTION_DDOT,TLE_LINE0,TLE_LINE1,TLE_LINE2,SEMIMAJOR_AXIS,PERIOD,APOGEE,PERIGEE,DECAYED
55299.0,STARLINK-5270,PAYLOAD,2023-12-29 21:57:11,14.9833007,0.000221,69.999,243.379,259.0664,101.0246,-1.2675e-05,-2.44e-06,0.0,0 STARLINK-5270,1 55299U 23010AG  23363.91471816 -.00000244  00000-0 -12675-4 0  9997,2 55299  69.9990 243.3790 0002210 259.0664 101.0246 14.98330070 54209,6950.193,96.107,573.594,570.522,0.0
55299.0,STARLINK-5270,PAYLOAD,2023-12-30 01:09:27,14.98331823,0.0002184,69.999,243.0425,256.8202,103.2713,8.8369e-06,1.3e-07,0.0,0 STARLINK-5270,1 55299U 23010AG  23364.04823621  .00000013  00000-0  88369-5 0  9993,2 55299  69.9990 243.0425 0002184 256.8202 103.2713 14.98331823 54226,6950.187,96.107,573.57,570.534,0.0
55299.0,STARLINK-5270,PAYLOAD,2023-12-30 18:46:56,14.98330469,0.0002164,69.9989,241.1905,258.8568,101.2348,3.1477e-06,-5.5e-07,0.0,0 STARLINK-5270,1 55299U 23010AG  23364.78259613 -.00000055  00000-0  31477-5 0  9993,2 55299  69.9989 241.1905 0002164 258.8568 101.2348 14.98330469 53148,6950.191,96.107,573.56,570.552,0.0
55299.0,STARLINK-5270,PAYLOAD,2023-12-30 21:59:12,14.98330498,0.0002164,69.9989,240.8538,258.5178,101.5738,3.7863e-06,-4.8e-07,0.0,0 STARLINK-5270,1 55299U 23010AG  23364.91611596 -.00000048  00000-0  37863-5 0  9997,2 55299  69.9989 240.8538 0002164 258.5178 101.5738 14.98330498 54352,6950.191,96.107,573.56,570.552,0.0
55299.0,STARLINK-5270,PAYLOAD,2023-12-31 18:48:57,14.98328047,0.000214,69.9988,238.6653,254.725,105.3673,-2.8591e-05,-4.34e-06,0.0,0 STARLINK-5270,1 55299U 23010AG  23365.78399809 -.00000434  00000-0 -28591-4 0  9990,2 55299  69.9988 238.6653 0002140 254.7250 105.3673 14.98328047 53296,6950.199,96.107,573.551,570.577,0.0
55299.0,STARLINK-5270,PAYLOAD,2023-12-31 22:01:13,14.9832752,0.0002148,69.9989,238.3286,254.1723,105.92,-3.3103e-05,-4.88e-06,0.0,0 STARLINK-5270,1 55299U 23010AG  23365.91751861 -.00000488  00000-0 -33103-4 0  9999,2 55299  69.9989 238.3286 0002148 254.1723 105.9200 14.98327520 54505,6950.201,96.107,573.558,570.573,0.0
55299.0,STARLINK-5270,PAYLOAD,2024-01-01 01:13:29,14.98327105,0.0002166,69.9989,237.992,255.6449,104.447,-3.8766e-05,-5.55e-06,0.0,0 STARLINK-5270,1 55299U 23010AG  24001.05103928 -.00000555  00000-0 -38766-4 0  9992,2 55299  69.9989 237.9920 0002166 255.6449 104.4470 14.98327105 54520,6950.202,96.107,573.572,570.561,0.0
55299.0,STARLINK-5270,PAYLOAD,2024-01-01 20:27:05,14.9833361,0.0002272,69.9985,235.971,260.2463,99.844,2.5646e-05,2.13e-06,0.0,0 STARLINK-5270,1 55299U 23010AG  24001.85215241  .00000213  00000-0  25646-4 0  9994,2 55299  69.9985 235.9710 0002272 260.2463  99.8440 14.98333610 53450,6950.182,96.107,573.626,570.468,0.0
55299.0,STARLINK-5270,PAYLOAD,2024-01-01 22:03:14,14.98333699,0.0002258,69.9986,235.8028,259.537,100.5535,2.7875e-05,2.4e-06,0.0,0 STARLINK-5270,1 55299U 23010AG  24001.91891213  .00000240  00000-0  27875-4 0  9996,2 55299  69.9986 235.8028 0002258 259.5370 100.5535 14.98333699 54659,6950.181,96.107,573.616,570.477,0.0
55299.0,STARLINK-5270,PAYLOAD,2024-01-02 01:15:30,14.98335282,0.0002349,69.9983,235.466,266.4773,93.6118,3.936e-05,3.77e-06,0.0,0 STARLINK-5270,1 55299U 23010AG  24002.05243063  .00000377  00000-0  39360-4 0  9999,2 55299  69.9983 235.4660 0002349 266.4773  93.6118 14.98335282 54670,6950.177,96.107,573.674,570.409,0.0
55299.0,STARLINK-5270,PAYLOAD,2024-01-02 22:05:15,14.98329959,0.0002341,69.9983,233.2778,266.1665,93.9226,2.8256e-05,2.44e-06,0.0,0 STARLINK-5270,1 55299U 23010AG  24002.92031303  .00000244  00000-0  28256-4 0  9992,2 55299  69.9983 233.2778 0002341 266.1665  93.9226 14.98329959 54807,6950.193,96.107,573.685,570.431,0.0
55299.0,STARLINK-5270,PAYLOAD,2024-01-03 01:17:31,14.98331775,0.0002337,69.9984,232.9418,266.8261,93.263,4.5759e-05,4.53e-06,0.0,0 STARLINK-5270,1 55299U 23010AG  24003.05383122  .00000453  00000-0  45759-4 0  9995,2 55299  69.9984 232.9418 0002337 266.8261  93.2630 14.98331775 53630,6950.187,96.107,573.677,570.428,0.0
55299.0,STARLINK-5270,PAYLOAD,2024-01-03 22:07:16,14.98339505,0.0002162,69.9986,230.7534,272.4601,87.6311,-0.0002338,-2.882e-05,0.0,0 STARLINK-5270,1 55299U 23010AG  24003.92171364 -.00002882  00000-0 -23380-3 0  9999,2 55299  69.9986 230.7534 0002162 272.4601  87.6311 14.98339505 54952,6950.163,96.106,573.531,570.526,0.0
55299.0,STARLINK-5270,PAYLOAD,2024-01-04 01:19:31,14.98354321,0.0002215,69.9986,230.4175,271.668,88.4226,-0.00049115,-5.952e-05,0.0,0 STARLINK-5270,1 55299U 23010AG  24004.05522946 -.00005952  00000-0 -49115-3 0  9995,2 55299  69.9986 230.4175 0002215 271.6680  88.4226 14.98354321 54976,6950.118,96.105,573.522,570.443,0.0
55299.0,STARLINK-5270,PAYLOAD,2024-01-04 20:33:08,14.98331218,0.0002339,69.9984,228.3975,264.9529,95.1363,-1.2862e-05,-2.46e-06,0.0,0 STARLINK-5270,1 55299U 23010AG  24004.85635152 -.00000246  00000-0 -12862-4 0  9998,2 55299  69.9984 228.3975 0002339 264.9529  95.1363 14.98331218 53901,6950.189,96.107,573.68,570.428,0.0
55299.0,STARLINK-5270,PAYLOAD,2024-01-04 22:09:16,14.98332879,0.0002306,69.9984,228.2292,263.757,96.3326,7.8672e-06,1e-08,0.0,0 STARLINK-5270,1 55299U 23010AG  24004.92310973  .00000001  00000-0  78672-5 0  9996,2 55299  69.9984 228.2292 0002306 263.7570  96.3326 14.98332879 55109,6950.184,96.107,573.652,570.446,0.0
55299.0,STARLINK-5270,PAYLOAD,2024-01-05 01:21:32,14.98332126,0.000231,69.9983,227.8924,267.3992,92.6902,-1.4484e-06,-1.1e-06,0.0,0 STARLINK-5270,1 55299U 23010AG  24005.05663040 -.00000110  00000-0 -14484-5 0  9991,2 55299  69.9983 227.8924 0002310 267.3992  92.6902 14.98332126 55124,6950.186,96.107,573.657,570.446,0.0
55299.0,STARLINK-5270,PAYLOAD,2024-01-05 22:11:18,14.98326222,0.0002323,69.9982,225.7038,265.4894,94.6,-1.0375e-06,-1.05e-06,0.0,0 STARLINK-5270,1 55299U 23010AG  24005.92451440 -.00000105  00000-0 -10375-5 0  9995,2 55299  69.9982 225.7038 0002323 265.4894  94.6000 14.98326222 55255,6950.205,96.107,573.684,570.455,0.0
55299.0,STARLINK-5270,PAYLOAD,2024-01-05 23:47:26,14.98326244,0.0002322,69.9982,225.5355,265.6069,94.4824,-1.0971e-06,-1.06e-06,0.0,0 STARLINK-5270,1 55299U 23010AG  24005.99127451 -.00000106  00000-0 -10971-5 0  9997,2 55299  69.9982 225.5355 0002322 265.6069  94.4824 14.98326244 54075,6950.205,96.107,573.683,570.456,0.0
55299.0,STARLINK-5270,PAYLOAD,2024-01-06 22:13:18,14.98330912,0.0002331,69.998,223.1781,265.9217,94.1676,-1.4934e-05,-2.71e-06,0.0,0 STARLINK-5270,1 55299U 23010AG  24006.92591217 -.00000271  00000-0 -14934-4 0  9991,2 55299  69.9980 223.1781 0002331 265.9217  94.1676 14.98330912 55405,6950.19,96.107,573.675,570.435,0.0
55299.0,STARLINK-5270,PAYLOAD,2024-01-06 23:49:26,14.98331336,0.0002325,69.998,223.0098,265.8602,94.2291,-9.5718e-06,-2.07e-06,0.0,0 STARLINK-5270,1 55299U 23010AG  24006.99267171 -.00000207  00000-0 -95718-5 0  9996,2 55299  69.9980 223.0098 0002325 265.8602  94.2291 14.98331336 54229,6950.189,96.107,573.67,570.438,0.0
55299.0,STARLINK-5270,PAYLOAD,2024-01-07 14:14:39,14.98328179,0.0002288,69.9982,221.4948,264.5644,95.5254,2.7305e-05,2.33e-06,0.0,0 STARLINK-5270,1 55299U 23010AG  24007.59351242  .00000233  00000-0  27305-4 0  9999,2 55299  69.9982 221.4948 0002288 264.5644  95.5254 14.98328179 55503,6950.199,96.107,573.654,570.473,0.0
55299.0,STARLINK-5270,PAYLOAD,2024-01-07 22:15:19,14.98328114,0.0002283,69.9983,220.6533,264.6312,95.4587,2.4824e-05,2.03e-06,0.0,0 STARLINK-5270,1 55299U 23010AG  24007.92731278  .00000203  00000-0  24824-4 0  9997,2 55299  69.9983 220.6533 0002283 264.6312  95.4587 14.98328114 55555,6950.199,96.107,573.65,570.477,0.0
55299.0,STARLINK-5270,PAYLOAD,2024-01-07 23:51:27,14.98328271,0.000228,69.9983,220.485,264.6414,95.4485,2.5904e-05,2.16e-06,0.0,0 STARLINK-5270,1 55299U 23010AG  24007.99407270  .00000216  00000-0  25904-4 0  9990,2 55299  69.9983 220.4850 0002280 264.6414  95.4485 14.98328271 54375,6950.198,96.107,573.648,570.479,0.0
55299.0,STARLINK-5270,PAYLOAD,2024-01-08 14:16:40,14.9833113,0.0002269,69.9984,218.9702,265.2161,94.8739,1.121e-05,4.1e-07,0.0,0 STARLINK-5270,1 55299U 23010AG  24008.59491119  .00000041  00000-0  11210-4 0  9993,2 55299  69.9984 218.9702 0002269 265.2161  94.8739 14.98331130 55652,6950.189,96.107,573.631,570.477,0.0
55299.0,STARLINK-5270,PAYLOAD,2024-01-08 22:17:20,14.98331479,0.0002267,69.9985,218.1287,265.4853,94.6047,1.4972e-05,8.6e-07,0.0,0 STARLINK-5270,1 55299U 23010AG  24008.92871052  .00000086  00000-0  14972-4 0  9995,2 55299  69.9985 218.1287 0002267 265.4853  94.6047 14.98331479 55703,6950.188,96.107,573.629,570.478,0.0
55299.0,STARLINK-5270,PAYLOAD,2024-01-08 23:53:28,14.98332151,0.0002311,69.9984,217.96,267.5492,92.5402,1.7992e-05,1.22e-06,0.0,0 STARLINK-5270,1 55299U 23010AG  24008.99546996  .00000122  00000-0  17992-4 0  9994,2 55299  69.9984 217.9600 0002311 267.5492  92.5402 14.98332151 54529,6950.186,96.107,573.657,570.445,0.0
55299.0,STARLINK-5270,PAYLOAD,2024-01-09 14:18:41,14.9833191,0.0002296,69.9985,216.4452,269.8045,90.2851,2.2211e-05,1.72e-06,0.0,0 STARLINK-5270,1 55299U 23010AG  24009.59630911  .00000172  00000-0  22211-4 0  9997,2 55299  69.9985 216.4452 0002296 269.8045  90.2851 14.98331910 55807,6950.187,96.107,573.648,570.456,0.0
55299.0,STARLINK-5270,PAYLOAD,2024-01-09 22:19:21,14.98332547,0.0002286,69.9986,215.6035,270.0427,90.047,2.803e-05,2.42e-06,0.0,0 STARLINK-5270,1 55299U 23010AG  24009.93010794  .00000242  00000-0  28030-4 0  9999,2 55299  69.9986 215.6035 0002286 270.0427  90.0470 14.98332547 55850,6950.185,96.107,573.639,570.461,0.0
55299.0,STARLINK-5270,PAYLOAD,2024-01-09 23:55:29,14.98332588,0.0002294,69.9986,215.4355,270.5872,89.5025,2.6192e-05,2.2e-06,0.0,0 STARLINK-5270,1 55299U 23010AG  24009.99686785  .00000220  00000-0  26192-4 0  9997,2 55299  69.9986 215.4355 0002294 270.5872  89.5025 14.98332588 54674,6950.185,96.107,573.644,570.456,0.0
